{"type":"FeatureCollection","features":[{"type":"Feature","properties":{"kod":"14805901","namn":"Stigberget 1"},"geometry":{"type":"Polygon","coordinates":[[[11.936817,57.700093],[11.936348,57.700043],[11.935376,57.699983],[11.93417,57.699939],[11.93439,57.699227],[11.934489,57.699068],[11.934591,57.698813],[11.934752,57.698415],[11.934999,57.697763],[11.935146,57.697376],[11.93531,57.696879],[11.936127,57.694611],[11.936146,57.694557],[11.936393,57.693923],[11.935703,57.693839],[11.935048,57.69442],[11.933912,57.695446],[11.933048,57.696211],[11.931574,57.697561],[11.931513,57.697578],[11.929969,57.698978],[11.929068,57.699795],[11.928737,57.700567],[11.928732,57.700578],[11.928625,57.700827],[11.933868,57.701233],[11.93656,57.70144],[11.936638,57.700949],[11.936205,57.700923],[11.93626,57.700583],[11.936119,57.700579],[11.936607,57.700369],[11.936741,57.700381],[11.936952,57.700278],[11.936787,57.700257],[11.936817,57.700093]]]}},{"type":"Feature","properties":{"kod":"14805902","namn":"Stigberget 2"},"geometry":{"type":"Polygon","coordinates":[[[11.935048,57.69442],[11.935703,57.693839],[11.936393,57.693923],[11.93661,57.693503],[11.937077,57.692143],[11.936939,57.692161],[11.936102,57.692095],[11.936049,57.692464],[11.934955,57.692419],[11.934367,57.69241],[11.934,57.692574],[11.933889,57.693332],[11.933605,57.693343],[11.933354,57.693629],[11.933102,57.693885],[11.932751,57.694109],[11.932256,57.694382],[11.932215,57.694468],[11.931943,57.695033],[11.930773,57.694973],[11.930586,57.695511],[11.929381,57.696702],[11.930461,57.697118],[11.931574,57.697561],[11.933048,57.696211],[11.933912,57.695446],[11.935048,57.69442]]]}},{"type":"Feature","properties":{"kod":"14805903","namn":"Stigberget 3"},"geometry":{"type":"Polygon","coordinates":[[[11.932215,57.694468],[11.932256,57.694382],[11.932751,57.694109],[11.933102,57.693885],[11.933354,57.693629],[11.933605,57.693343],[11.933889,57.693332],[11.934,57.692574],[11.934367,57.69241],[11.934955,57.692419],[11.936049,57.692464],[11.936102,57.692095],[11.936939,57.692161],[11.937077,57.692143],[11.937143,57.692062],[11.937378,57.691772],[11.937661,57.691515],[11.937946,57.691062],[11.938088,57.690959],[11.938447,57.690819],[11.939194,57.690499],[11.93921,57.690486],[11.939224,57.690473],[11.939235,57.690459],[11.939244,57.690445],[11.93925,57.69043],[11.939254,57.690415],[11.939254,57.6904],[11.939253,57.690385],[11.939247,57.69037],[11.93924,57.690356],[11.93923,57.690342],[11.939217,57.690328],[11.939203,57.690315],[11.939185,57.690303],[11.939166,57.690292],[11.939145,57.690282],[11.939121,57.690274],[11.939097,57.690266],[11.939072,57.69026],[11.938699,57.690217],[11.934486,57.689783],[11.9344,57.689822],[11.933011,57.690034],[11.93274,57.690104],[11.932934,57.690356],[11.932584,57.690433],[11.932636,57.6905],[11.9326,57.690522],[11.932566,57.690545],[11.932536,57.690569],[11.932506,57.690593],[11.932479,57.690619],[11.932455,57.690644],[11.932433,57.690671],[11.932413,57.690698],[11.932396,57.690725],[11.932382,57.690753],[11.93237,57.690782],[11.93236,57.69081],[11.932354,57.690839],[11.93235,57.690868],[11.932007,57.690965],[11.93195,57.690984],[11.931978,57.691007],[11.931859,57.691238],[11.931692,57.691562],[11.931525,57.691887],[11.931444,57.691875],[11.931431,57.6919],[11.931147,57.692078],[11.930855,57.692261],[11.930794,57.69231],[11.930607,57.692461],[11.930564,57.692539],[11.930552,57.692558],[11.930539,57.692582],[11.931155,57.692673],[11.930842,57.692841],[11.930655,57.693205],[11.930626,57.693396],[11.930692,57.693484],[11.930112,57.69363],[11.930235,57.693763],[11.930186,57.69405],[11.93001,57.69436],[11.930119,57.69452],[11.931203,57.694601],[11.931577,57.694576],[11.931668,57.694399],[11.932215,57.694468]]]}},{"type":"Feature","properties":{"kod":"14805904","namn":"Stigberget 4"},"geometry":{"type":"Polygon","coordinates":[[[11.932215,57.694468],[11.931668,57.694399],[11.931577,57.694576],[11.931203,57.694601],[11.930119,57.69452],[11.93001,57.69436],[11.930186,57.69405],[11.930235,57.693763],[11.930112,57.69363],[11.930692,57.693484],[11.930626,57.693396],[11.930655,57.693205],[11.930842,57.692841],[11.931155,57.692673],[11.930539,57.692582],[11.930552,57.692558],[11.930564,57.692539],[11.930607,57.692461],[11.930794,57.69231],[11.930855,57.692261],[11.931147,57.692078],[11.931431,57.6919],[11.931444,57.691875],[11.931525,57.691887],[11.931692,57.691562],[11.931859,57.691238],[11.931978,57.691007],[11.93195,57.690984],[11.932007,57.690965],[11.93235,57.690868],[11.932354,57.690839],[11.93236,57.69081],[11.93237,57.690782],[11.932382,57.690753],[11.932396,57.690725],[11.932413,57.690698],[11.932433,57.690671],[11.932455,57.690644],[11.932479,57.690619],[11.932506,57.690593],[11.932536,57.690569],[11.932566,57.690545],[11.9326,57.690522],[11.932636,57.6905],[11.932584,57.690433],[11.932934,57.690356],[11.93274,57.690104],[11.931339,57.690465],[11.930547,57.690774],[11.930081,57.690919],[11.92972,57.69108],[11.929417,57.691222],[11.928901,57.691488],[11.927885,57.69213],[11.927852,57.69215],[11.926866,57.692975],[11.926595,57.6935],[11.926385,57.693908],[11.925956,57.694741],[11.928764,57.695153],[11.928197,57.696247],[11.929381,57.696702],[11.930586,57.695511],[11.930773,57.694973],[11.931943,57.695033],[11.932215,57.694468]]]}},{"type":"Feature","properties":{"kod":"14808401","namn":"Kungsladugård-Sanna 1"},"geometry":{"type":"Polygon","coordinates":[[[11.917812,57.689723],[11.916303,57.688996],[11.916952,57.688607],[11.916217,57.688255],[11.91552,57.687833],[11.915318,57.687719],[11.912668,57.688984],[11.911483,57.689534],[11.911321,57.68943],[11.911378,57.689403],[11.91138,57.689355],[11.910061,57.688561],[11.909299,57.687956],[11.909037,57.687789],[11.908463,57.687449],[11.909394,57.686989],[11.907683,57.685973],[11.906781,57.686386],[11.906592,57.686444],[11.906237,57.686538],[11.903976,57.687139],[11.902827,57.688959],[11.901836,57.690468],[11.903641,57.690991],[11.904741,57.69148],[11.90633,57.692288],[11.907658,57.693082],[11.908383,57.693262],[11.910046,57.693522],[11.911069,57.693039],[11.911209,57.693121],[11.911307,57.693179],[11.911964,57.692685],[11.912606,57.692203],[11.912718,57.692307],[11.912902,57.692165],[11.913264,57.691973],[11.913626,57.691806],[11.913697,57.691767],[11.913886,57.691664],[11.914192,57.691492],[11.914723,57.691279],[11.914754,57.691264],[11.915456,57.690935],[11.915709,57.690798],[11.916467,57.690387],[11.916571,57.690432],[11.917478,57.689933],[11.917605,57.689837],[11.917812,57.689723]]]}},{"type":"Feature","properties":{"kod":"14808402","namn":"Kungsladugård-Sanna 2"},"geometry":{"type":"Polygon","coordinates":[[[11.922417,57.68721],[11.922401,57.687101],[11.922343,57.686808],[11.922167,57.686737],[11.921997,57.68667],[11.921484,57.686677],[11.921368,57.686036],[11.921278,57.685525],[11.920939,57.685481],[11.920706,57.685437],[11.920443,57.685272],[11.920228,57.685136],[11.920197,57.685002],[11.920251,57.684843],[11.920893,57.684127],[11.919576,57.683968],[11.919452,57.684278],[11.919216,57.684589],[11.918732,57.685146],[11.918471,57.685276],[11.918368,57.68532],[11.918461,57.685377],[11.919238,57.685847],[11.91885,57.686032],[11.917474,57.686689],[11.915318,57.687719],[11.91552,57.687833],[11.916217,57.688255],[11.916952,57.688607],[11.916303,57.688996],[11.917812,57.689723],[11.918402,57.689399],[11.918415,57.689393],[11.918429,57.689388],[11.918445,57.689385],[11.918462,57.689383],[11.918479,57.689382],[11.918496,57.689384],[11.918512,57.689387],[11.918528,57.689391],[11.918541,57.689396],[11.920296,57.687981],[11.920771,57.687704],[11.920956,57.687596],[11.92129,57.687405],[11.921309,57.68734],[11.922417,57.68721]]]}},{"type":"Feature","properties":{"kod":"14808403","namn":"Kungsladugård-Sanna 3"},"geometry":{"type":"Polygon","coordinates":[[[11.927993,57.687027],[11.928166,57.687026],[11.931743,57.687455],[11.932006,57.68735],[11.931504,57.686233],[11.931481,57.686187],[11.93146,57.686141],[11.931443,57.686095],[11.931427,57.686048],[11.931415,57.686001],[11.931405,57.685954],[11.931399,57.685907],[11.931268,57.684967],[11.931164,57.684936],[11.931043,57.684904],[11.930268,57.684679],[11.930212,57.684659],[11.929959,57.684586],[11.93004,57.684529],[11.926838,57.683613],[11.926401,57.684054],[11.925703,57.684752],[11.92556,57.684901],[11.925412,57.685043],[11.9254,57.685054],[11.925223,57.6852],[11.925089,57.685296],[11.92497,57.685372],[11.924829,57.685451],[11.923598,57.686044],[11.922167,57.686737],[11.922343,57.686808],[11.922401,57.687101],[11.922417,57.68721],[11.925218,57.687039],[11.925284,57.68704],[11.925755,57.687042],[11.925757,57.687035],[11.92787,57.687027],[11.927993,57.687027]]]}},{"type":"Feature","properties":{"kod":"14808404","namn":"Kungsladugård-Sanna 4"},"geometry":{"type":"Polygon","coordinates":[[[11.93004,57.684529],[11.929959,57.684586],[11.930212,57.684659],[11.930268,57.684679],[11.931043,57.684904],[11.931164,57.684936],[11.931268,57.684967],[11.931421,57.685013],[11.931404,57.684906],[11.931331,57.683946],[11.931184,57.683899],[11.931169,57.683619],[11.931978,57.683251],[11.932068,57.683213],[11.93216,57.683176],[11.932253,57.683141],[11.932348,57.683107],[11.932444,57.683074],[11.932542,57.683042],[11.932642,57.683011],[11.932742,57.682982],[11.932844,57.682954],[11.933219,57.682858],[11.933265,57.682845],[11.93331,57.682831],[11.933354,57.682815],[11.933396,57.682799],[11.933436,57.682782],[11.933475,57.682763],[11.933511,57.682743],[11.933546,57.682722],[11.933578,57.6827],[11.933608,57.682678],[11.933636,57.682654],[11.933661,57.682629],[11.933683,57.682605],[11.933704,57.682579],[11.933722,57.682552],[11.933736,57.682526],[11.933749,57.682499],[11.933758,57.682471],[11.933797,57.682275],[11.933831,57.682022],[11.933855,57.681889],[11.933864,57.681859],[11.933876,57.681829],[11.933892,57.681799],[11.93391,57.68177],[11.933931,57.681742],[11.933954,57.681714],[11.933995,57.681674],[11.934038,57.681635],[11.934084,57.681597],[11.934134,57.681561],[11.934186,57.681525],[11.935035,57.680972],[11.935092,57.680929],[11.935145,57.680887],[11.935197,57.680843],[11.935245,57.680798],[11.935293,57.680753],[11.935336,57.680707],[11.935378,57.68066],[11.935417,57.680612],[11.935453,57.680564],[11.935487,57.680516],[11.935517,57.680467],[11.935546,57.680417],[11.935571,57.680367],[11.935593,57.680317],[11.935613,57.680266],[11.93563,57.680216],[11.935644,57.680164],[11.935656,57.680113],[11.935664,57.680061],[11.935673,57.680025],[11.935679,57.679989],[11.935681,57.679952],[11.93568,57.679916],[11.935677,57.679879],[11.93567,57.679843],[11.93566,57.679807],[11.935648,57.679771],[11.935632,57.679735],[11.935613,57.6797],[11.935551,57.679619],[11.935036,57.679616],[11.93296,57.679316],[11.932431,57.67925],[11.931813,57.679425],[11.931693,57.679476],[11.930855,57.679799],[11.93074,57.679844],[11.930603,57.679906],[11.930511,57.679957],[11.930427,57.680015],[11.93034,57.680099],[11.92995,57.680486],[11.929696,57.680742],[11.928401,57.680426],[11.927268,57.680195],[11.927141,57.680179],[11.926886,57.680471],[11.926119,57.680436],[11.925805,57.680443],[11.925739,57.680339],[11.92544,57.680264],[11.924786,57.680318],[11.924452,57.680288],[11.924226,57.680118],[11.924159,57.680057],[11.923688,57.680083],[11.923672,57.680032],[11.92382,57.679946],[11.923956,57.679793],[11.924186,57.679539],[11.922276,57.679726],[11.922286,57.680902],[11.92252,57.684071],[11.921466,57.684197],[11.920893,57.684127],[11.920251,57.684843],[11.920197,57.685002],[11.920228,57.685136],[11.920443,57.685272],[11.920706,57.685437],[11.920939,57.685481],[11.921278,57.685525],[11.921368,57.686036],[11.921484,57.686677],[11.921997,57.68667],[11.922167,57.686737],[11.923598,57.686044],[11.924829,57.685451],[11.92497,57.685372],[11.925089,57.685296],[11.925223,57.6852],[11.9254,57.685054],[11.925412,57.685043],[11.92556,57.684901],[11.925703,57.684752],[11.926401,57.684054],[11.926838,57.683613],[11.93004,57.684529]]]}},{"type":"Feature","properties":{"kod":"14808405","namn":"Kungsladugård-Sanna 5"},"geometry":{"type":"Polygon","coordinates":[[[11.935551,57.679619],[11.935216,57.679183],[11.935194,57.67915],[11.935174,57.679116],[11.935158,57.679082],[11.935144,57.679048],[11.935133,57.679013],[11.935125,57.678978],[11.93512,57.678942],[11.935118,57.678907],[11.935119,57.678872],[11.935122,57.678836],[11.935138,57.678562],[11.935136,57.678502],[11.935133,57.678442],[11.935125,57.678382],[11.935116,57.678322],[11.935104,57.678263],[11.93509,57.678203],[11.935072,57.678144],[11.934992,57.677983],[11.934982,57.677961],[11.934969,57.677939],[11.934952,57.677918],[11.934934,57.677898],[11.934913,57.677878],[11.934888,57.677859],[11.934862,57.677841],[11.934833,57.677824],[11.934801,57.677809],[11.934322,57.677636],[11.934282,57.677617],[11.934245,57.677597],[11.934209,57.677576],[11.934175,57.677554],[11.934144,57.677531],[11.934115,57.677507],[11.934088,57.677483],[11.934063,57.677457],[11.934041,57.677432],[11.934021,57.677406],[11.934004,57.677379],[11.933989,57.677352],[11.933977,57.677324],[11.933968,57.677296],[11.933961,57.677268],[11.933957,57.677239],[11.933956,57.677211],[11.933957,57.677183],[11.933961,57.677154],[11.933968,57.677126],[11.933977,57.677098],[11.933989,57.67707],[11.934004,57.677043],[11.93429,57.676417],[11.934303,57.676397],[11.93423,57.676414],[11.934238,57.676141],[11.934231,57.676095],[11.934227,57.676049],[11.934227,57.676002],[11.934229,57.675955],[11.934235,57.675909],[11.934244,57.675863],[11.934257,57.675817],[11.933473,57.675872],[11.933209,57.676201],[11.9332,57.676212],[11.932966,57.676228],[11.93288,57.67578],[11.932149,57.675886],[11.932183,57.676296],[11.931508,57.676241],[11.931486,57.675982],[11.930229,57.676164],[11.930053,57.676188],[11.929422,57.676039],[11.929282,57.676006],[11.929134,57.675971],[11.926046,57.675242],[11.924688,57.674961],[11.924671,57.675021],[11.924767,57.675154],[11.924845,57.67532],[11.924961,57.675501],[11.925191,57.675726],[11.925293,57.675784],[11.924889,57.676766],[11.924958,57.676772],[11.924943,57.676823],[11.924934,57.676856],[11.924749,57.67684],[11.924422,57.677822],[11.924413,57.677851],[11.924462,57.677935],[11.924757,57.67845],[11.924725,57.678456],[11.924735,57.678473],[11.924305,57.678544],[11.924383,57.678679],[11.924776,57.679367],[11.924841,57.679479],[11.924186,57.679539],[11.923956,57.679793],[11.92382,57.679946],[11.923672,57.680032],[11.923688,57.680083],[11.924159,57.680057],[11.924226,57.680118],[11.924452,57.680288],[11.924786,57.680318],[11.92544,57.680264],[11.925739,57.680339],[11.925805,57.680443],[11.926119,57.680436],[11.926886,57.680471],[11.927141,57.680179],[11.927268,57.680195],[11.928401,57.680426],[11.929696,57.680742],[11.92995,57.680486],[11.93034,57.680099],[11.930427,57.680015],[11.930511,57.679957],[11.930603,57.679906],[11.93074,57.679844],[11.930855,57.679799],[11.931693,57.679476],[11.931813,57.679425],[11.932431,57.67925],[11.93296,57.679316],[11.935036,57.679616],[11.935551,57.679619]]]}},{"type":"Feature","properties":{"kod":"14808406","namn":"Kungsladugård-Sanna 6"},"geometry":{"type":"Polygon","coordinates":[[[11.915318,57.687719],[11.917474,57.686689],[11.91885,57.686032],[11.919238,57.685847],[11.918461,57.685377],[11.918368,57.68532],[11.918471,57.685276],[11.918732,57.685146],[11.919216,57.684589],[11.919452,57.684278],[11.919576,57.683968],[11.915358,57.683457],[11.914392,57.683919],[11.916133,57.684986],[11.915339,57.685388],[11.914435,57.685844],[11.913203,57.686435],[11.913026,57.686333],[11.912807,57.686434],[11.911552,57.685964],[11.909517,57.686929],[11.909394,57.686989],[11.908463,57.687449],[11.909037,57.687789],[11.909299,57.687956],[11.910061,57.688561],[11.91138,57.689355],[11.911378,57.689403],[11.911321,57.68943],[11.911483,57.689534],[11.912668,57.688984],[11.915318,57.687719]]]}},{"type":"Feature","properties":{"kod":"14808407","namn":"Kungsladugård-Sanna 7"},"geometry":{"type":"Polygon","coordinates":[[[11.909394,57.686989],[11.909517,57.686929],[11.911552,57.685964],[11.912807,57.686434],[11.913026,57.686333],[11.913203,57.686435],[11.914435,57.685844],[11.915339,57.685388],[11.916133,57.684986],[11.914392,57.683919],[11.915358,57.683457],[11.919576,57.683968],[11.920893,57.684127],[11.921466,57.684197],[11.92252,57.684071],[11.922286,57.680902],[11.922276,57.679726],[11.924186,57.679539],[11.924841,57.679479],[11.924776,57.679367],[11.924383,57.678679],[11.924305,57.678544],[11.924735,57.678473],[11.924725,57.678456],[11.924757,57.67845],[11.924462,57.677935],[11.924413,57.677851],[11.924422,57.677822],[11.924749,57.67684],[11.924934,57.676856],[11.924943,57.676823],[11.924958,57.676772],[11.924889,57.676766],[11.925293,57.675784],[11.925191,57.675726],[11.924961,57.675501],[11.924845,57.67532],[11.924767,57.675154],[11.924671,57.675021],[11.924688,57.674961],[11.923941,57.674807],[11.923064,57.674768],[11.922114,57.674772],[11.921366,57.674828],[11.920583,57.674939],[11.919635,57.675132],[11.919496,57.67516],[11.918654,57.675376],[11.91805,57.675607],[11.916483,57.676202],[11.916301,57.676271],[11.915084,57.676792],[11.913975,57.677266],[11.913592,57.677475],[11.913099,57.677849],[11.912738,57.678394],[11.912473,57.678896],[11.912108,57.679268],[11.911407,57.679686],[11.910766,57.679913],[11.910012,57.680055],[11.909304,57.680101],[11.906518,57.680149],[11.905957,57.680206],[11.904988,57.680312],[11.904824,57.680491],[11.904691,57.680573],[11.905117,57.680783],[11.905166,57.680807],[11.905213,57.680834],[11.905258,57.68086],[11.905302,57.680888],[11.905343,57.680917],[11.905382,57.680946],[11.905786,57.681318],[11.902752,57.681606],[11.902548,57.681625],[11.897022,57.68215],[11.893872,57.682456],[11.893888,57.682486],[11.897031,57.686994],[11.893933,57.68885],[11.897722,57.68928],[11.897779,57.689297],[11.901836,57.690468],[11.902827,57.688959],[11.903976,57.687139],[11.906237,57.686538],[11.906592,57.686444],[11.906781,57.686386],[11.907683,57.685973],[11.909394,57.686989]]]}},{"type":"Feature","properties":{"kod":"14808501","namn":"Majorna 1"},"geometry":{"type":"Polygon","coordinates":[[[11.929969,57.698978],[11.929754,57.698889],[11.927548,57.698042],[11.926662,57.697734],[11.925832,57.697445],[11.924147,57.697013],[11.924855,57.696321],[11.923065,57.695798],[11.922883,57.695747],[11.920978,57.695177],[11.921233,57.695004],[11.921159,57.694472],[11.920474,57.693805],[11.920877,57.693605],[11.920962,57.693429],[11.919355,57.692812],[11.919069,57.69267],[11.918743,57.692629],[11.917702,57.693043],[11.917595,57.692978],[11.91756,57.693111],[11.916802,57.693664],[11.916783,57.693664],[11.916658,57.693744],[11.916585,57.693792],[11.916605,57.693819],[11.916488,57.693899],[11.916459,57.693886],[11.916381,57.693931],[11.916061,57.693989],[11.916069,57.694029],[11.914879,57.694351],[11.913675,57.694204],[11.91349,57.694566],[11.91303,57.694508],[11.912696,57.694939],[11.912327,57.694793],[11.912005,57.695114],[11.913148,57.695582],[11.913706,57.696119],[11.914334,57.696567],[11.916351,57.69759],[11.918884,57.698706],[11.919319,57.698897],[11.920135,57.69907],[11.921437,57.699346],[11.922772,57.699502],[11.922947,57.699522],[11.928211,57.700795],[11.928625,57.700827],[11.928732,57.700578],[11.928737,57.700567],[11.929068,57.699795],[11.929969,57.698978]]]}},{"type":"Feature","properties":{"kod":"14808502","namn":"Majorna 2"},"geometry":{"type":"Polygon","coordinates":[[[11.931574,57.697561],[11.930461,57.697118],[11.929381,57.696702],[11.928197,57.696247],[11.928171,57.696237],[11.92685,57.695884],[11.925447,57.695723],[11.924096,57.695596],[11.923065,57.695798],[11.924855,57.696321],[11.924147,57.697013],[11.925832,57.697445],[11.926662,57.697734],[11.927548,57.698042],[11.929754,57.698889],[11.929969,57.698978],[11.931513,57.697578],[11.931574,57.697561]]]}},{"type":"Feature","properties":{"kod":"14808503","namn":"Majorna 3"},"geometry":{"type":"Polygon","coordinates":[[[11.930081,57.690919],[11.929986,57.690864],[11.929559,57.690547],[11.929418,57.69045],[11.929289,57.690349],[11.929174,57.690242],[11.929064,57.690128],[11.92897,57.69001],[11.928894,57.689889],[11.928834,57.689765],[11.928728,57.68934],[11.928647,57.688965],[11.928564,57.688573],[11.928509,57.68839],[11.928388,57.688399],[11.927486,57.688255],[11.927829,57.688772],[11.927916,57.689099],[11.927917,57.6892],[11.927968,57.689199],[11.927968,57.689705],[11.927834,57.690131],[11.927738,57.690125],[11.927651,57.69029],[11.927482,57.690532],[11.927219,57.690792],[11.927099,57.690887],[11.927287,57.691007],[11.927302,57.691046],[11.927298,57.691265],[11.927254,57.691432],[11.927232,57.691468],[11.927162,57.69154],[11.927075,57.691571],[11.927014,57.691593],[11.926407,57.691809],[11.925509,57.692131],[11.924667,57.692304],[11.924437,57.69229],[11.923379,57.692152],[11.923086,57.692114],[11.922859,57.692408],[11.922647,57.693254],[11.922513,57.69324],[11.922451,57.693233],[11.92245,57.693247],[11.922215,57.693227],[11.921954,57.693382],[11.921382,57.693454],[11.920962,57.693429],[11.920877,57.693605],[11.920474,57.693805],[11.921159,57.694472],[11.921233,57.695004],[11.920978,57.695177],[11.922883,57.695747],[11.923065,57.695798],[11.924096,57.695596],[11.925447,57.695723],[11.92685,57.695884],[11.928171,57.696237],[11.928197,57.696247],[11.928764,57.695153],[11.925956,57.694741],[11.926385,57.693908],[11.926595,57.6935],[11.926866,57.692975],[11.927852,57.69215],[11.927885,57.69213],[11.928901,57.691488],[11.929417,57.691222],[11.92972,57.69108],[11.930081,57.690919]]]}},{"type":"Feature","properties":{"kod":"14808504","namn":"Majorna 4"},"geometry":{"type":"Polygon","coordinates":[[[11.930547,57.690774],[11.931339,57.690465],[11.93274,57.690104],[11.933011,57.690034],[11.9344,57.689822],[11.934486,57.689783],[11.933897,57.689059],[11.933856,57.68901],[11.933812,57.688962],[11.933766,57.688915],[11.933716,57.688868],[11.933664,57.688822],[11.933609,57.688778],[11.933551,57.688734],[11.933491,57.688691],[11.933438,57.688654],[11.931743,57.687455],[11.928166,57.687026],[11.927993,57.687027],[11.928027,57.687135],[11.928052,57.68722],[11.928401,57.68803],[11.928509,57.68839],[11.928564,57.688573],[11.928647,57.688965],[11.928728,57.68934],[11.928834,57.689765],[11.928894,57.689889],[11.92897,57.69001],[11.929064,57.690128],[11.929174,57.690242],[11.929289,57.690349],[11.929418,57.69045],[11.929559,57.690547],[11.929986,57.690864],[11.930081,57.690919],[11.930547,57.690774]]]}},{"type":"Feature","properties":{"kod":"14808505","namn":"Majorna 5"},"geometry":{"type":"Polygon","coordinates":[[[11.919355,57.692812],[11.919564,57.692673],[11.919678,57.692434],[11.919622,57.692232],[11.919652,57.691984],[11.919923,57.691686],[11.920138,57.691516],[11.920183,57.691385],[11.92021,57.691308],[11.920878,57.691166],[11.920865,57.69115],[11.920852,57.691132],[11.920834,57.691107],[11.920536,57.690704],[11.92065,57.690586],[11.920685,57.690451],[11.920685,57.690442],[11.92066,57.690408],[11.920477,57.69016],[11.920336,57.689969],[11.920656,57.690122],[11.92081,57.690198],[11.921224,57.690186],[11.920879,57.689688],[11.92126,57.689512],[11.92083,57.689337],[11.920792,57.689179],[11.921378,57.688763],[11.921429,57.688727],[11.922649,57.687859],[11.922854,57.687845],[11.923135,57.687959],[11.923225,57.687941],[11.92327,57.687942],[11.923446,57.688003],[11.923652,57.688111],[11.923804,57.688127],[11.924002,57.688107],[11.924371,57.68806],[11.924735,57.688255],[11.924817,57.688261],[11.925186,57.688343],[11.92551,57.688219],[11.925412,57.688017],[11.925448,57.687984],[11.925977,57.68791],[11.926092,57.687895],[11.926898,57.687955],[11.927486,57.688255],[11.928388,57.688399],[11.928509,57.68839],[11.928401,57.68803],[11.928052,57.68722],[11.928027,57.687135],[11.927993,57.687027],[11.92787,57.687027],[11.925757,57.687035],[11.925755,57.687042],[11.925284,57.68704],[11.925218,57.687039],[11.922417,57.68721],[11.921309,57.68734],[11.92129,57.687405],[11.920956,57.687596],[11.920771,57.687704],[11.920296,57.687981],[11.918541,57.689396],[11.918528,57.689391],[11.918512,57.689387],[11.918496,57.689384],[11.918479,57.689382],[11.918462,57.689383],[11.918445,57.689385],[11.918429,57.689388],[11.918415,57.689393],[11.918402,57.689399],[11.917812,57.689723],[11.917605,57.689837],[11.917478,57.689933],[11.916571,57.690432],[11.916467,57.690387],[11.915709,57.690798],[11.915456,57.690935],[11.914754,57.691264],[11.914723,57.691279],[11.914192,57.691492],[11.913886,57.691664],[11.913697,57.691767],[11.913626,57.691806],[11.913264,57.691973],[11.912902,57.692165],[11.912718,57.692307],[11.912606,57.692203],[11.911964,57.692685],[11.911307,57.693179],[11.911209,57.693121],[11.911069,57.693039],[11.910046,57.693522],[11.911129,57.693947],[11.91206,57.694536],[11.912327,57.694793],[11.912696,57.694939],[11.91303,57.694508],[11.91349,57.694566],[11.913675,57.694204],[11.914879,57.694351],[11.916069,57.694029],[11.916061,57.693989],[11.916381,57.693931],[11.916459,57.693886],[11.916488,57.693899],[11.916605,57.693819],[11.916585,57.693792],[11.916658,57.693744],[11.916783,57.693664],[11.916802,57.693664],[11.91756,57.693111],[11.917595,57.692978],[11.917702,57.693043],[11.918743,57.692629],[11.919069,57.69267],[11.919355,57.692812]]]}},{"type":"Feature","properties":{"kod":"14808506","namn":"Majorna 6"},"geometry":{"type":"Polygon","coordinates":[[[11.927486,57.688255],[11.926898,57.687955],[11.926092,57.687895],[11.925977,57.68791],[11.925448,57.687984],[11.925412,57.688017],[11.92551,57.688219],[11.925186,57.688343],[11.924817,57.688261],[11.924735,57.688255],[11.924371,57.68806],[11.924002,57.688107],[11.923804,57.688127],[11.923652,57.688111],[11.923446,57.688003],[11.92327,57.687942],[11.923225,57.687941],[11.923135,57.687959],[11.922854,57.687845],[11.922649,57.687859],[11.921429,57.688727],[11.921378,57.688763],[11.920792,57.689179],[11.92083,57.689337],[11.92126,57.689512],[11.920879,57.689688],[11.921224,57.690186],[11.92081,57.690198],[11.920656,57.690122],[11.920336,57.689969],[11.920477,57.69016],[11.92066,57.690408],[11.920685,57.690442],[11.920685,57.690451],[11.92065,57.690586],[11.920536,57.690704],[11.920834,57.691107],[11.920852,57.691132],[11.920865,57.69115],[11.920878,57.691166],[11.92021,57.691308],[11.920183,57.691385],[11.920138,57.691516],[11.919923,57.691686],[11.919652,57.691984],[11.919622,57.692232],[11.919678,57.692434],[11.919564,57.692673],[11.919355,57.692812],[11.920962,57.693429],[11.921382,57.693454],[11.921954,57.693382],[11.922215,57.693227],[11.92245,57.693247],[11.922451,57.693233],[11.922513,57.69324],[11.922647,57.693254],[11.922859,57.692408],[11.923086,57.692114],[11.923379,57.692152],[11.924437,57.69229],[11.924667,57.692304],[11.925509,57.692131],[11.926407,57.691809],[11.927014,57.691593],[11.927075,57.691571],[11.927162,57.69154],[11.927232,57.691468],[11.927254,57.691432],[11.927298,57.691265],[11.927302,57.691046],[11.927287,57.691007],[11.927099,57.690887],[11.927219,57.690792],[11.927482,57.690532],[11.927651,57.69029],[11.927738,57.690125],[11.927834,57.690131],[11.927968,57.689705],[11.927968,57.689199],[11.927917,57.6892],[11.927916,57.689099],[11.927829,57.688772],[11.927486,57.688255]]]}}]}