{
 "type": "FeatureCollection",
 "bbox": [
  11.893872,
  57.674767,
  11.939255,
  57.70144
 ],
 "features": [
  {
   "type": "Feature",
   "properties": {
    "kod": "14801011",
    "namn": "Klippan",
    "etikett": [
     11.906459,
     57.689299
    ],
    "area_km2": 0.4099
   },
   "geometry": {
    "type": "Polygon",
    "coordinates": [
     [
      [
       11.917813,
       57.689723
      ],
      [
       11.916304,
       57.688996
      ],
      [
       11.916952,
       57.688607
      ],
      [
       11.916218,
       57.688255
      ],
      [
       11.91552,
       57.687833
      ],
      [
       11.915318,
       57.687718
      ],
      [
       11.912669,
       57.688983
      ],
      [
       11.911484,
       57.689533
      ],
      [
       11.911322,
       57.68943
      ],
      [
       11.911379,
       57.689403
      ],
      [
       11.911381,
       57.689355
      ],
      [
       11.910062,
       57.688561
      ],
      [
       11.9093,
       57.687956
      ],
      [
       11.909037,
       57.687789
      ],
      [
       11.908463,
       57.687449
      ],
      [
       11.909395,
       57.686989
      ],
      [
       11.907684,
       57.685973
      ],
      [
       11.906782,
       57.686385
      ],
      [
       11.906592,
       57.686444
      ],
      [
       11.906238,
       57.686538
      ],
      [
       11.903976,
       57.687139
      ],
      [
       11.902828,
       57.688958
      ],
      [
       11.901837,
       57.690467
      ],
      [
       11.903641,
       57.690991
      ],
      [
       11.904742,
       57.69148
      ],
      [
       11.906331,
       57.692287
      ],
      [
       11.907658,
       57.693082
      ],
      [
       11.908384,
       57.693261
      ],
      [
       11.910047,
       57.693522
      ],
      [
       11.91107,
       57.693039
      ],
      [
       11.91121,
       57.693121
      ],
      [
       11.911308,
       57.693178
      ],
      [
       11.911965,
       57.692684
      ],
      [
       11.912606,
       57.692203
      ],
      [
       11.912719,
       57.692306
      ],
      [
       11.912902,
       57.692165
      ],
      [
       11.913264,
       57.691972
      ],
      [
       11.913627,
       57.691806
      ],
      [
       11.913698,
       57.691767
      ],
      [
       11.913887,
       57.691664
      ],
      [
       11.914193,
       57.691492
      ],
      [
       11.914724,
       57.691279
      ],
      [
       11.914754,
       57.691264
      ],
      [
       11.915457,
       57.690935
      ],
      [
       11.91571,
       57.690798
      ],
      [
       11.916467,
       57.690386
      ],
      [
       11.916572,
       57.690432
      ],
      [
       11.917479,
       57.689933
      ],
      [
       11.917606,
       57.689837
      ],
      [
       11.917813,
       57.689723
      ]
     ]
    ]
   }
  },
  {
   "type": "Feature",
   "properties": {
    "kod": "14801012",
    "namn": "Kungsladugård",
    "etikett": [
     11.927304,
     57.685424
    ],
    "area_km2": 0.1402
   },
   "geometry": {
    "type": "Polygon",
    "coordinates": [
     [
      [
       11.931268,
       57.684966
      ],
      [
       11.931165,
       57.684936
      ],
      [
       11.931044,
       57.684904
      ],
      [
       11.930268,
       57.684679
      ],
      [
       11.930213,
       57.684659
      ],
      [
       11.929959,
       57.684585
      ],
      [
       11.930042,
       57.684528
      ],
      [
       11.926838,
       57.683613
      ],
      [
       11.926401,
       57.684054
      ],
      [
       11.925704,
       57.684752
      ],
      [
       11.92556,
       57.684901
      ],
      [
       11.925413,
       57.685043
      ],
      [
       11.9254,
       57.685054
      ],
      [
       11.925223,
       57.6852
      ],
      [
       11.92509,
       57.685296
      ],
      [
       11.924971,
       57.685372
      ],
      [
       11.92483,
       57.685451
      ],
      [
       11.923599,
       57.686044
      ],
      [
       11.922168,
       57.686737
      ],
      [
       11.922344,
       57.686808
      ],
      [
       11.922402,
       57.687101
      ],
      [
       11.922417,
       57.68721
      ],
      [
       11.925219,
       57.687039
      ],
      [
       11.925284,
       57.68704
      ],
      [
       11.925756,
       57.687042
      ],
      [
       11.925758,
       57.687035
      ],
      [
       11.92787,
       57.687027
      ],
      [
       11.927994,
       57.687026
      ],
      [
       11.928167,
       57.687026
      ],
      [
       11.931744,
       57.687455
      ],
      [
       11.932007,
       57.68735
      ],
      [
       11.931504,
       57.686233
      ],
      [
       11.931481,
       57.686187
      ],
      [
       11.931461,
       57.686141
      ],
      [
       11.931443,
       57.686095
      ],
      [
       11.931428,
       57.686048
      ],
      [
       11.931415,
       57.686001
      ],
      [
       11.931406,
       57.685954
      ],
      [
       11.931399,
       57.685907
      ],
      [
       11.931268,
       57.684966
      ]
     ]
    ]
   }
  },
  {
   "type": "Feature",
   "properties": {
    "kod": "14801013",
    "namn": "Mariaplan",
    "etikett": [
     11.918167,
     57.687906
    ],
    "area_km2": 0.1112
   },
   "geometry": {
    "type": "Polygon",
    "coordinates": [
     [
      [
       11.918463,
       57.689383
      ],
      [
       11.918479,
       57.689382
      ],
      [
       11.918497,
       57.689383
      ],
      [
       11.918513,
       57.689386
      ],
      [
       11.918528,
       57.68939
      ],
      [
       11.918542,
       57.689396
      ],
      [
       11.920296,
       57.687981
      ],
      [
       11.920772,
       57.687703
      ],
      [
       11.920956,
       57.687595
      ],
      [
       11.921291,
       57.687404
      ],
      [
       11.92131,
       57.68734
      ],
      [
       11.922417,
       57.68721
      ],
      [
       11.922402,
       57.687101
      ],
      [
       11.922344,
       57.686808
      ],
      [
       11.922168,
       57.686737
      ],
      [
       11.921998,
       57.686669
      ],
      [
       11.921484,
       57.686677
      ],
      [
       11.921369,
       57.686036
      ],
      [
       11.921278,
       57.685525
      ],
      [
       11.92094,
       57.68548
      ],
      [
       11.920707,
       57.685437
      ],
      [
       11.920443,
       57.685271
      ],
      [
       11.920228,
       57.685136
      ],
      [
       11.920198,
       57.685002
      ],
      [
       11.920251,
       57.684842
      ],
      [
       11.920894,
       57.684127
      ],
      [
       11.919577,
       57.683967
      ],
      [
       11.919452,
       57.684278
      ],
      [
       11.919216,
       57.684589
      ],
      [
       11.918733,
       57.685146
      ],
      [
       11.918472,
       57.685275
      ],
      [
       11.918368,
       57.68532
      ],
      [
       11.918462,
       57.685377
      ],
      [
       11.919239,
       57.685846
      ],
      [
       11.918851,
       57.686032
      ],
      [
       11.917475,
       57.686689
      ],
      [
       11.915318,
       57.687718
      ],
      [
       11.91552,
       57.687833
      ],
      [
       11.916218,
       57.688255
      ],
      [
       11.916952,
       57.688607
      ],
      [
       11.916304,
       57.688996
      ],
      [
       11.917813,
       57.689723
      ],
      [
       11.918402,
       57.689399
      ],
      [
       11.918416,
       57.689393
      ],
      [
       11.91843,
       57.689388
      ],
      [
       11.918446,
       57.689384
      ],
      [
       11.918463,
       57.689383
      ]
     ]
    ]
   }
  },
  {
   "type": "Feature",
   "properties": {
    "kod": "14801014",
    "namn": "Silverkällan",
    "etikett": [
     11.911681,
     57.687694
    ],
    "area_km2": 0.179
   },
   "geometry": {
    "type": "Polygon",
    "coordinates": [
     [
      [
       11.915318,
       57.687718
      ],
      [
       11.917475,
       57.686689
      ],
      [
       11.918851,
       57.686032
      ],
      [
       11.919239,
       57.685846
      ],
      [
       11.918462,
       57.685377
      ],
      [
       11.918368,
       57.68532
      ],
      [
       11.918472,
       57.685275
      ],
      [
       11.918733,
       57.685146
      ],
      [
       11.919216,
       57.684589
      ],
      [
       11.919452,
       57.684278
      ],
      [
       11.919577,
       57.683967
      ],
      [
       11.915359,
       57.683457
      ],
      [
       11.914393,
       57.683919
      ],
      [
       11.916134,
       57.684986
      ],
      [
       11.91534,
       57.685387
      ],
      [
       11.914436,
       57.685844
      ],
      [
       11.913203,
       57.686435
      ],
      [
       11.913027,
       57.686333
      ],
      [
       11.912808,
       57.686434
      ],
      [
       11.911552,
       57.685963
      ],
      [
       11.909517,
       57.686929
      ],
      [
       11.909395,
       57.686989
      ],
      [
       11.908463,
       57.687449
      ],
      [
       11.909037,
       57.687789
      ],
      [
       11.9093,
       57.687956
      ],
      [
       11.910062,
       57.688561
      ],
      [
       11.911381,
       57.689355
      ],
      [
       11.911379,
       57.689403
      ],
      [
       11.911322,
       57.68943
      ],
      [
       11.911484,
       57.689533
      ],
      [
       11.912669,
       57.688983
      ],
      [
       11.915318,
       57.687718
      ]
     ]
    ]
   }
  },
  {
   "type": "Feature",
   "properties": {
    "kod": "14801015",
    "namn": "Skytteskogen",
    "etikett": [
     11.924678,
     57.682581
    ],
    "area_km2": 0.3812
   },
   "geometry": {
    "type": "Polygon",
    "coordinates": [
     [
      [
       11.931268,
       57.684966
      ],
      [
       11.931422,
       57.685012
      ],
      [
       11.931405,
       57.684905
      ],
      [
       11.931331,
       57.683946
      ],
      [
       11.931184,
       57.683898
      ],
      [
       11.931169,
       57.683618
      ],
      [
       11.931978,
       57.683251
      ],
      [
       11.932069,
       57.683213
      ],
      [
       11.93216,
       57.683176
      ],
      [
       11.932254,
       57.68314
      ],
      [
       11.932349,
       57.683106
      ],
      [
       11.932445,
       57.683073
      ],
      [
       11.932543,
       57.683042
      ],
      [
       11.932642,
       57.683011
      ],
      [
       11.932743,
       57.682982
      ],
      [
       11.932844,
       57.682954
      ],
      [
       11.93322,
       57.682857
      ],
      [
       11.933266,
       57.682845
      ],
      [
       11.933311,
       57.682831
      ],
      [
       11.933355,
       57.682815
      ],
      [
       11.933397,
       57.682799
      ],
      [
       11.933437,
       57.682781
      ],
      [
       11.933476,
       57.682763
      ],
      [
       11.933512,
       57.682743
      ],
      [
       11.933547,
       57.682722
      ],
      [
       11.933578,
       57.6827
      ],
      [
       11.933609,
       57.682677
      ],
      [
       11.933636,
       57.682654
      ],
      [
       11.933661,
       57.682629
      ],
      [
       11.933684,
       57.682604
      ],
      [
       11.933704,
       57.682579
      ],
      [
       11.933722,
       57.682552
      ],
      [
       11.933737,
       57.682526
      ],
      [
       11.933749,
       57.682499
      ],
      [
       11.933758,
       57.682471
      ],
      [
       11.933798,
       57.682275
      ],
      [
       11.933832,
       57.682021
      ],
      [
       11.933856,
       57.681889
      ],
      [
       11.933865,
       57.681858
      ],
      [
       11.933877,
       57.681828
      ],
      [
       11.933893,
       57.681799
      ],
      [
       11.93391,
       57.68177
      ],
      [
       11.933931,
       57.681741
      ],
      [
       11.933955,
       57.681714
      ],
      [
       11.933996,
       57.681674
      ],
      [
       11.934039,
       57.681635
      ],
      [
       11.934085,
       57.681597
      ],
      [
       11.934135,
       57.68156
      ],
      [
       11.934187,
       57.681525
      ],
      [
       11.935036,
       57.680971
      ],
      [
       11.935092,
       57.680929
      ],
      [
       11.935146,
       57.680886
      ],
      [
       11.935198,
       57.680842
      ],
      [
       11.935246,
       57.680798
      ],
      [
       11.935293,
       57.680753
      ],
      [
       11.935337,
       57.680706
      ],
      [
       11.935378,
       57.68066
      ],
      [
       11.935417,
       57.680612
      ],
      [
       11.935453,
       57.680564
      ],
      [
       11.935488,
       57.680516
      ],
      [
       11.935518,
       57.680466
      ],
      [
       11.935546,
       57.680417
      ],
      [
       11.935572,
       57.680367
      ],
      [
       11.935594,
       57.680317
      ],
      [
       11.935614,
       57.680266
      ],
      [
       11.935631,
       57.680215
      ],
      [
       11.935645,
       57.680164
      ],
      [
       11.935657,
       57.680113
      ],
      [
       11.935665,
       57.680061
      ],
      [
       11.935673,
       57.680025
      ],
      [
       11.935679,
       57.679988
      ],
      [
       11.935682,
       57.679952
      ],
      [
       11.935681,
       57.679915
      ],
      [
       11.935677,
       57.679879
      ],
      [
       11.935671,
       57.679842
      ],
      [
       11.935661,
       57.679806
      ],
      [
       11.935648,
       57.67977
      ],
      [
       11.935633,
       57.679735
      ],
      [
       11.935614,
       57.6797
      ],
      [
       11.935552,
       57.679619
      ],
      [
       11.935037,
       57.679615
      ],
      [
       11.932961,
       57.679316
      ],
      [
       11.932431,
       57.67925
      ],
      [
       11.931813,
       57.679425
      ],
      [
       11.931693,
       57.679476
      ],
      [
       11.930855,
       57.679798
      ],
      [
       11.930741,
       57.679844
      ],
      [
       11.930604,
       57.679905
      ],
      [
       11.930511,
       57.679957
      ],
      [
       11.930428,
       57.680015
      ],
      [
       11.930341,
       57.680098
      ],
      [
       11.929951,
       57.680486
      ],
      [
       11.929697,
       57.680741
      ],
      [
       11.928402,
       57.680425
      ],
      [
       11.927269,
       57.680195
      ],
      [
       11.927141,
       57.680179
      ],
      [
       11.926887,
       57.68047
      ],
      [
       11.92612,
       57.680436
      ],
      [
       11.925806,
       57.680443
      ],
      [
       11.92574,
       57.680339
      ],
      [
       11.92544,
       57.680264
      ],
      [
       11.924786,
       57.680318
      ],
      [
       11.924453,
       57.680288
      ],
      [
       11.924226,
       57.680117
      ],
      [
       11.924159,
       57.680057
      ],
      [
       11.923689,
       57.680082
      ],
      [
       11.923673,
       57.680031
      ],
      [
       11.92382,
       57.679945
      ],
      [
       11.923957,
       57.679793
      ],
      [
       11.924187,
       57.679539
      ],
      [
       11.922277,
       57.679726
      ],
      [
       11.922287,
       57.680902
      ],
      [
       11.92252,
       57.684071
      ],
      [
       11.921467,
       57.684196
      ],
      [
       11.920894,
       57.684127
      ],
      [
       11.920251,
       57.684842
      ],
      [
       11.920198,
       57.685002
      ],
      [
       11.920228,
       57.685136
      ],
      [
       11.920443,
       57.685271
      ],
      [
       11.920707,
       57.685437
      ],
      [
       11.92094,
       57.68548
      ],
      [
       11.921278,
       57.685525
      ],
      [
       11.921369,
       57.686036
      ],
      [
       11.921484,
       57.686677
      ],
      [
       11.921998,
       57.686669
      ],
      [
       11.922168,
       57.686737
      ],
      [
       11.923599,
       57.686044
      ],
      [
       11.92483,
       57.685451
      ],
      [
       11.924971,
       57.685372
      ],
      [
       11.92509,
       57.685296
      ],
      [
       11.925223,
       57.6852
      ],
      [
       11.9254,
       57.685054
      ],
      [
       11.925413,
       57.685043
      ],
      [
       11.92556,
       57.684901
      ],
      [
       11.925704,
       57.684752
      ],
      [
       11.926401,
       57.684054
      ],
      [
       11.926838,
       57.683613
      ],
      [
       11.930042,
       57.684528
      ],
      [
       11.929959,
       57.684585
      ],
      [
       11.930213,
       57.684659
      ],
      [
       11.930268,
       57.684679
      ],
      [
       11.931044,
       57.684904
      ],
      [
       11.931165,
       57.684936
      ],
      [
       11.931268,
       57.684966
      ]
     ]
    ]
   }
  },
  {
   "type": "Feature",
   "properties": {
    "kod": "14801016",
    "namn": "Svalebo",
    "etikett": [
     11.927026,
     57.677863
    ],
    "area_km2": 0.2822
   },
   "geometry": {
    "type": "Polygon",
    "coordinates": [
     [
      [
       11.929951,
       57.680486
      ],
      [
       11.930341,
       57.680098
      ],
      [
       11.930428,
       57.680015
      ],
      [
       11.930511,
       57.679957
      ],
      [
       11.930604,
       57.679905
      ],
      [
       11.930741,
       57.679844
      ],
      [
       11.930855,
       57.679798
      ],
      [
       11.931693,
       57.679476
      ],
      [
       11.931813,
       57.679425
      ],
      [
       11.932431,
       57.67925
      ],
      [
       11.932961,
       57.679316
      ],
      [
       11.935037,
       57.679615
      ],
      [
       11.935552,
       57.679619
      ],
      [
       11.935216,
       57.679183
      ],
      [
       11.935194,
       57.67915
      ],
      [
       11.935175,
       57.679116
      ],
      [
       11.935158,
       57.679082
      ],
      [
       11.935145,
       57.679047
      ],
      [
       11.935134,
       57.679012
      ],
      [
       11.935126,
       57.678977
      ],
      [
       11.935121,
       57.678942
      ],
      [
       11.935118,
       57.678907
      ],
      [
       11.935119,
       57.678872
      ],
      [
       11.935123,
       57.678836
      ],
      [
       11.935139,
       57.678562
      ],
      [
       11.935137,
       57.678502
      ],
      [
       11.935134,
       57.678442
      ],
      [
       11.935126,
       57.678382
      ],
      [
       11.935117,
       57.678322
      ],
      [
       11.935105,
       57.678262
      ],
      [
       11.93509,
       57.678203
      ],
      [
       11.935073,
       57.678143
      ],
      [
       11.934992,
       57.677983
      ],
      [
       11.934982,
       57.677961
      ],
      [
       11.934969,
       57.677939
      ],
      [
       11.934953,
       57.677918
      ],
      [
       11.934934,
       57.677897
      ],
      [
       11.934913,
       57.677877
      ],
      [
       11.934889,
       57.677859
      ],
      [
       11.934862,
       57.677841
      ],
      [
       11.934833,
       57.677824
      ],
      [
       11.934802,
       57.677808
      ],
      [
       11.934323,
       57.677635
      ],
      [
       11.934283,
       57.677616
      ],
      [
       11.934245,
       57.677596
      ],
      [
       11.93421,
       57.677576
      ],
      [
       11.934176,
       57.677554
      ],
      [
       11.934145,
       57.677531
      ],
      [
       11.934116,
       57.677507
      ],
      [
       11.934089,
       57.677483
      ],
      [
       11.934064,
       57.677457
      ],
      [
       11.934042,
       57.677432
      ],
      [
       11.934022,
       57.677405
      ],
      [
       11.934005,
       57.677379
      ],
      [
       11.93399,
       57.677351
      ],
      [
       11.933978,
       57.677324
      ],
      [
       11.933968,
       57.677295
      ],
      [
       11.933962,
       57.677267
      ],
      [
       11.933958,
       57.677239
      ],
      [
       11.933957,
       57.677211
      ],
      [
       11.933958,
       57.677182
      ],
      [
       11.933962,
       57.677154
      ],
      [
       11.933969,
       57.677126
      ],
      [
       11.933978,
       57.677098
      ],
      [
       11.93399,
       57.67707
      ],
      [
       11.934005,
       57.677043
      ],
      [
       11.93429,
       57.676416
      ],
      [
       11.934303,
       57.676397
      ],
      [
       11.93423,
       57.676413
      ],
      [
       11.934238,
       57.676141
      ],
      [
       11.934231,
       57.676094
      ],
      [
       11.934228,
       57.676048
      ],
      [
       11.934227,
       57.676002
      ],
      [
       11.93423,
       57.675955
      ],
      [
       11.934236,
       57.675909
      ],
      [
       11.934245,
       57.675863
      ],
      [
       11.934258,
       57.675817
      ],
      [
       11.933473,
       57.675872
      ],
      [
       11.93321,
       57.676201
      ],
      [
       11.9332,
       57.676211
      ],
      [
       11.932966,
       57.676227
      ],
      [
       11.932881,
       57.67578
      ],
      [
       11.932149,
       57.675886
      ],
      [
       11.932184,
       57.676295
      ],
      [
       11.931509,
       57.67624
      ],
      [
       11.931486,
       57.675982
      ],
      [
       11.93023,
       57.676164
      ],
      [
       11.930054,
       57.676188
      ],
      [
       11.929422,
       57.676039
      ],
      [
       11.929283,
       57.676006
      ],
      [
       11.929135,
       57.675971
      ],
      [
       11.926046,
       57.675242
      ],
      [
       11.924689,
       57.674961
      ],
      [
       11.924672,
       57.67502
      ],
      [
       11.924768,
       57.675154
      ],
      [
       11.924846,
       57.67532
      ],
      [
       11.924961,
       57.675501
      ],
      [
       11.925191,
       57.675726
      ],
      [
       11.925294,
       57.675784
      ],
      [
       11.92489,
       57.676766
      ],
      [
       11.924959,
       57.676771
      ],
      [
       11.924944,
       57.676823
      ],
      [
       11.924934,
       57.676855
      ],
      [
       11.92475,
       57.67684
      ],
      [
       11.924423,
       57.677822
      ],
      [
       11.924414,
       57.67785
      ],
      [
       11.924462,
       57.677935
      ],
      [
       11.924757,
       57.67845
      ],
      [
       11.924726,
       57.678455
      ],
      [
       11.924735,
       57.678472
      ],
      [
       11.924306,
       57.678543
      ],
      [
       11.924384,
       57.678679
      ],
      [
       11.924777,
       57.679367
      ],
      [
       11.924842,
       57.679479
      ],
      [
       11.924187,
       57.679539
      ],
      [
       11.923957,
       57.679793
      ],
      [
       11.92382,
       57.679945
      ],
      [
       11.923673,
       57.680031
      ],
      [
       11.923689,
       57.680082
      ],
      [
       11.924159,
       57.680057
      ],
      [
       11.924226,
       57.680117
      ],
      [
       11.924453,
       57.680288
      ],
      [
       11.924786,
       57.680318
      ],
      [
       11.92544,
       57.680264
      ],
      [
       11.92574,
       57.680339
      ],
      [
       11.925806,
       57.680443
      ],
      [
       11.92612,
       57.680436
      ],
      [
       11.926887,
       57.68047
      ],
      [
       11.927141,
       57.680179
      ],
      [
       11.927269,
       57.680195
      ],
      [
       11.928402,
       57.680425
      ],
      [
       11.929697,
       57.680741
      ],
      [
       11.929951,
       57.680486
      ]
     ]
    ]
   }
  },
  {
   "type": "Feature",
   "properties": {
    "kod": "14801021",
    "namn": "Sandarne",
    "etikett": [
     11.918286,
     57.67979
    ],
    "area_km2": 1.4144
   },
   "geometry": {
    "type": "Polygon",
    "coordinates": [
     [
      [
       11.906782,
       57.686385
      ],
      [
       11.907684,
       57.685973
      ],
      [
       11.909395,
       57.686989
      ],
      [
       11.909517,
       57.686929
      ],
      [
       11.911552,
       57.685963
      ],
      [
       11.912808,
       57.686434
      ],
      [
       11.913027,
       57.686333
      ],
      [
       11.913203,
       57.686435
      ],
      [
       11.914436,
       57.685844
      ],
      [
       11.91534,
       57.685387
      ],
      [
       11.916134,
       57.684986
      ],
      [
       11.914393,
       57.683919
      ],
      [
       11.915359,
       57.683457
      ],
      [
       11.919577,
       57.683967
      ],
      [
       11.920894,
       57.684127
      ],
      [
       11.921467,
       57.684196
      ],
      [
       11.92252,
       57.684071
      ],
      [
       11.922287,
       57.680902
      ],
      [
       11.922277,
       57.679726
      ],
      [
       11.924187,
       57.679539
      ],
      [
       11.924842,
       57.679479
      ],
      [
       11.924777,
       57.679367
      ],
      [
       11.924384,
       57.678679
      ],
      [
       11.924306,
       57.678543
      ],
      [
       11.924735,
       57.678472
      ],
      [
       11.924726,
       57.678455
      ],
      [
       11.924757,
       57.67845
      ],
      [
       11.924462,
       57.677935
      ],
      [
       11.924414,
       57.67785
      ],
      [
       11.924423,
       57.677822
      ],
      [
       11.92475,
       57.67684
      ],
      [
       11.924934,
       57.676855
      ],
      [
       11.924944,
       57.676823
      ],
      [
       11.924959,
       57.676771
      ],
      [
       11.92489,
       57.676766
      ],
      [
       11.925294,
       57.675784
      ],
      [
       11.925191,
       57.675726
      ],
      [
       11.924961,
       57.675501
      ],
      [
       11.924846,
       57.67532
      ],
      [
       11.924768,
       57.675154
      ],
      [
       11.924672,
       57.67502
      ],
      [
       11.924689,
       57.674961
      ],
      [
       11.923942,
       57.674806
      ],
      [
       11.923065,
       57.674767
      ],
      [
       11.922115,
       57.674772
      ],
      [
       11.921367,
       57.674827
      ],
      [
       11.920584,
       57.674938
      ],
      [
       11.919635,
       57.675132
      ],
      [
       11.919496,
       57.67516
      ],
      [
       11.918655,
       57.675376
      ],
      [
       11.91805,
       57.675606
      ],
      [
       11.916484,
       57.676201
      ],
      [
       11.916301,
       57.676271
      ],
      [
       11.915085,
       57.676792
      ],
      [
       11.913976,
       57.677266
      ],
      [
       11.913593,
       57.677475
      ],
      [
       11.9131,
       57.677848
      ],
      [
       11.912739,
       57.678394
      ],
      [
       11.912474,
       57.678895
      ],
      [
       11.912109,
       57.679268
      ],
      [
       11.911408,
       57.679686
      ],
      [
       11.910767,
       57.679913
      ],
      [
       11.910013,
       57.680054
      ],
      [
       11.909305,
       57.680101
      ],
      [
       11.906519,
       57.680149
      ],
      [
       11.905958,
       57.680206
      ],
      [
       11.904989,
       57.680311
      ],
      [
       11.904825,
       57.680491
      ],
      [
       11.904692,
       57.680572
      ],
      [
       11.905117,
       57.680783
      ],
      [
       11.905166,
       57.680807
      ],
      [
       11.905214,
       57.680833
      ],
      [
       11.905259,
       57.68086
      ],
      [
       11.905302,
       57.680888
      ],
      [
       11.905343,
       57.680916
      ],
      [
       11.905382,
       57.680946
      ],
      [
       11.905787,
       57.681318
      ],
      [
       11.902752,
       57.681605
      ],
      [
       11.902549,
       57.681625
      ],
      [
       11.897023,
       57.682149
      ],
      [
       11.893872,
       57.682456
      ],
      [
       11.893889,
       57.682486
      ],
      [
       11.897032,
       57.686994
      ],
      [
       11.893933,
       57.688849
      ],
      [
       11.897723,
       57.68928
      ],
      [
       11.897779,
       57.689296
      ],
      [
       11.901837,
       57.690467
      ],
      [
       11.902828,
       57.688958
      ],
      [
       11.903976,
       57.687139
      ],
      [
       11.906238,
       57.686538
      ],
      [
       11.906592,
       57.686444
      ],
      [
       11.906782,
       57.686385
      ]
     ]
    ]
   }
  },
  {
   "type": "Feature",
   "properties": {
    "kod": "14801031",
    "namn": "Godhem",
    "etikett": [
     11.930397,
     57.689004
    ],
    "area_km2": 0.0983
   },
   "geometry": {
    "type": "Polygon",
    "coordinates": [
     [
      [
       11.932741,
       57.690104
      ],
      [
       11.933012,
       57.690034
      ],
      [
       11.934401,
       57.689821
      ],
      [
       11.934486,
       57.689783
      ],
      [
       11.933898,
       57.689058
      ],
      [
       11.933856,
       57.68901
      ],
      [
       11.933813,
       57.688961
      ],
      [
       11.933766,
       57.688914
      ],
      [
       11.933717,
       57.688868
      ],
      [
       11.933664,
       57.688822
      ],
      [
       11.933609,
       57.688778
      ],
      [
       11.933552,
       57.688734
      ],
      [
       11.933491,
       57.688691
      ],
      [
       11.933438,
       57.688653
      ],
      [
       11.931744,
       57.687455
      ],
      [
       11.928167,
       57.687026
      ],
      [
       11.927994,
       57.687026
      ],
      [
       11.928028,
       57.687135
      ],
      [
       11.928053,
       57.68722
      ],
      [
       11.928402,
       57.68803
      ],
      [
       11.92851,
       57.68839
      ],
      [
       11.928565,
       57.688573
      ],
      [
       11.928647,
       57.688964
      ],
      [
       11.928729,
       57.68934
      ],
      [
       11.928835,
       57.689764
      ],
      [
       11.928895,
       57.689888
      ],
      [
       11.928971,
       57.69001
      ],
      [
       11.929064,
       57.690128
      ],
      [
       11.929175,
       57.690242
      ],
      [
       11.92929,
       57.690348
      ],
      [
       11.929418,
       57.69045
      ],
      [
       11.92956,
       57.690547
      ],
      [
       11.929987,
       57.690864
      ],
      [
       11.930082,
       57.690919
      ],
      [
       11.930547,
       57.690774
      ],
      [
       11.931339,
       57.690464
      ],
      [
       11.932741,
       57.690104
      ]
     ]
    ]
   }
  },
  {
   "type": "Feature",
   "properties": {
    "kod": "14801032",
    "namn": "Gråberget",
    "etikett": [
     11.924003,
     57.690166
    ],
    "area_km2": 0.205
   },
   "geometry": {
    "type": "Polygon",
    "coordinates": [
     [
      [
       11.921955,
       57.693382
      ],
      [
       11.922216,
       57.693227
      ],
      [
       11.922451,
       57.693246
      ],
      [
       11.922451,
       57.693233
      ],
      [
       11.922514,
       57.693239
      ],
      [
       11.922648,
       57.693254
      ],
      [
       11.922859,
       57.692408
      ],
      [
       11.923087,
       57.692114
      ],
      [
       11.92338,
       57.692152
      ],
      [
       11.924437,
       57.692289
      ],
      [
       11.924667,
       57.692304
      ],
      [
       11.925509,
       57.69213
      ],
      [
       11.926408,
       57.691809
      ],
      [
       11.927015,
       57.691592
      ],
      [
       11.927075,
       57.691571
      ],
      [
       11.927163,
       57.691539
      ],
      [
       11.927232,
       57.691468
      ],
      [
       11.927255,
       57.691432
      ],
      [
       11.927299,
       57.691265
      ],
      [
       11.927302,
       57.691046
      ],
      [
       11.927288,
       57.691007
      ],
      [
       11.9271,
       57.690887
      ],
      [
       11.92722,
       57.690792
      ],
      [
       11.927482,
       57.690531
      ],
      [
       11.927652,
       57.69029
      ],
      [
       11.927738,
       57.690124
      ],
      [
       11.927835,
       57.690131
      ],
      [
       11.927969,
       57.689705
      ],
      [
       11.927968,
       57.689199
      ],
      [
       11.927917,
       57.689199
      ],
      [
       11.927917,
       57.689098
      ],
      [
       11.927829,
       57.688772
      ],
      [
       11.927486,
       57.688255
      ],
      [
       11.926898,
       57.687955
      ],
      [
       11.926092,
       57.687894
      ],
      [
       11.925978,
       57.68791
      ],
      [
       11.925449,
       57.687984
      ],
      [
       11.925413,
       57.688017
      ],
      [
       11.92551,
       57.688219
      ],
      [
       11.925186,
       57.688343
      ],
      [
       11.924817,
       57.68826
      ],
      [
       11.924736,
       57.688255
      ],
      [
       11.924372,
       57.688059
      ],
      [
       11.924002,
       57.688106
      ],
      [
       11.923804,
       57.688127
      ],
      [
       11.923653,
       57.688111
      ],
      [
       11.923447,
       57.688003
      ],
      [
       11.92327,
       57.687942
      ],
      [
       11.923226,
       57.68794
      ],
      [
       11.923136,
       57.687959
      ],
      [
       11.922855,
       57.687845
      ],
      [
       11.92265,
       57.687859
      ],
      [
       11.921429,
       57.688727
      ],
      [
       11.921379,
       57.688763
      ],
      [
       11.920793,
       57.689178
      ],
      [
       11.92083,
       57.689337
      ],
      [
       11.921261,
       57.689511
      ],
      [
       11.92088,
       57.689688
      ],
      [
       11.921224,
       57.690186
      ],
      [
       11.920811,
       57.690197
      ],
      [
       11.920657,
       57.690122
      ],
      [
       11.920337,
       57.689969
      ],
      [
       11.920478,
       57.690159
      ],
      [
       11.920661,
       57.690408
      ],
      [
       11.920686,
       57.690442
      ],
      [
       11.920686,
       57.690451
      ],
      [
       11.920651,
       57.690586
      ],
      [
       11.920536,
       57.690704
      ],
      [
       11.920835,
       57.691107
      ],
      [
       11.920853,
       57.691131
      ],
      [
       11.920866,
       57.69115
      ],
      [
       11.920878,
       57.691166
      ],
      [
       11.92021,
       57.691307
      ],
      [
       11.920184,
       57.691385
      ],
      [
       11.920139,
       57.691515
      ],
      [
       11.919924,
       57.691686
      ],
      [
       11.919652,
       57.691984
      ],
      [
       11.919623,
       57.692232
      ],
      [
       11.919679,
       57.692434
      ],
      [
       11.919564,
       57.692673
      ],
      [
       11.919356,
       57.692812
      ],
      [
       11.920962,
       57.693429
      ],
      [
       11.921383,
       57.693454
      ],
      [
       11.921955,
       57.693382
      ]
     ]
    ]
   }
  },
  {
   "type": "Feature",
   "properties": {
    "kod": "14801033",
    "namn": "Hängmattan",
    "etikett": [
     11.929027,
     57.697588
    ],
    "area_km2": 0.115
   },
   "geometry": {
    "type": "Polygon",
    "coordinates": [
     [
      [
       11.92288,
       57.694669
      ],
      [
       11.923196,
       57.693453
      ],
      [
       11.923184,
       57.693433
      ],
      [
       11.922626,
       57.693345
      ],
      [
       11.922648,
       57.693254
      ],
      [
       11.922514,
       57.693239
      ],
      [
       11.922451,
       57.693233
      ],
      [
       11.922451,
       57.693246
      ],
      [
       11.922216,
       57.693227
      ],
      [
       11.921955,
       57.693382
      ],
      [
       11.921383,
       57.693454
      ],
      [
       11.920962,
       57.693429
      ],
      [
       11.920877,
       57.693605
      ],
      [
       11.920474,
       57.693805
      ],
      [
       11.921159,
       57.694472
      ],
      [
       11.921234,
       57.695004
      ],
      [
       11.920979,
       57.695177
      ],
      [
       11.922883,
       57.695746
      ],
      [
       11.923066,
       57.695797
      ],
      [
       11.924856,
       57.696321
      ],
      [
       11.924147,
       57.697012
      ],
      [
       11.925833,
       57.697445
      ],
      [
       11.926662,
       57.697733
      ],
      [
       11.927548,
       57.698042
      ],
      [
       11.929754,
       57.698889
      ],
      [
       11.92997,
       57.698978
      ],
      [
       11.931514,
       57.697578
      ],
      [
       11.931575,
       57.697561
      ],
      [
       11.930461,
       57.697118
      ],
      [
       11.929382,
       57.696702
      ],
      [
       11.928198,
       57.696247
      ],
      [
       11.928171,
       57.696237
      ],
      [
       11.92685,
       57.695884
      ],
      [
       11.925447,
       57.695723
      ],
      [
       11.924097,
       57.695596
      ],
      [
       11.924214,
       57.695355
      ],
      [
       11.923696,
       57.695194
      ],
      [
       11.923336,
       57.695042
      ],
      [
       11.922982,
       57.694844
      ],
      [
       11.92288,
       57.694669
      ]
     ]
    ]
   }
  },
  {
   "type": "Feature",
   "properties": {
    "kod": "14801034",
    "namn": "Majorna",
    "etikett": [
     11.918369,
     57.695593
    ],
    "area_km2": 0.486
   },
   "geometry": {
    "type": "Polygon",
    "coordinates": [
     [
      [
       11.920962,
       57.693429
      ],
      [
       11.919356,
       57.692812
      ],
      [
       11.91907,
       57.69267
      ],
      [
       11.918744,
       57.692629
      ],
      [
       11.917703,
       57.693042
      ],
      [
       11.917595,
       57.692978
      ],
      [
       11.914754,
       57.691264
      ],
      [
       11.914724,
       57.691279
      ],
      [
       11.914193,
       57.691492
      ],
      [
       11.913887,
       57.691664
      ],
      [
       11.913698,
       57.691767
      ],
      [
       11.913627,
       57.691806
      ],
      [
       11.913264,
       57.691972
      ],
      [
       11.912902,
       57.692165
      ],
      [
       11.912719,
       57.692306
      ],
      [
       11.912606,
       57.692203
      ],
      [
       11.911965,
       57.692684
      ],
      [
       11.911308,
       57.693178
      ],
      [
       11.91121,
       57.693121
      ],
      [
       11.91107,
       57.693039
      ],
      [
       11.910047,
       57.693522
      ],
      [
       11.911129,
       57.693947
      ],
      [
       11.912061,
       57.694536
      ],
      [
       11.912328,
       57.694792
      ],
      [
       11.912006,
       57.695113
      ],
      [
       11.913149,
       57.695581
      ],
      [
       11.913707,
       57.696119
      ],
      [
       11.914335,
       57.696566
      ],
      [
       11.916351,
       57.69759
      ],
      [
       11.918884,
       57.698705
      ],
      [
       11.91932,
       57.698897
      ],
      [
       11.920135,
       57.69907
      ],
      [
       11.921438,
       57.699345
      ],
      [
       11.922773,
       57.699501
      ],
      [
       11.922948,
       57.699522
      ],
      [
       11.928211,
       57.700794
      ],
      [
       11.928626,
       57.700827
      ],
      [
       11.928732,
       57.700578
      ],
      [
       11.928737,
       57.700566
      ],
      [
       11.929068,
       57.699795
      ],
      [
       11.92997,
       57.698978
      ],
      [
       11.929754,
       57.698889
      ],
      [
       11.927548,
       57.698042
      ],
      [
       11.926662,
       57.697733
      ],
      [
       11.925833,
       57.697445
      ],
      [
       11.924147,
       57.697012
      ],
      [
       11.924856,
       57.696321
      ],
      [
       11.923066,
       57.695797
      ],
      [
       11.922883,
       57.695746
      ],
      [
       11.920979,
       57.695177
      ],
      [
       11.921234,
       57.695004
      ],
      [
       11.921159,
       57.694472
      ],
      [
       11.920474,
       57.693805
      ],
      [
       11.920877,
       57.693605
      ],
      [
       11.920962,
       57.693429
      ]
     ]
    ]
   }
  },
  {
   "type": "Feature",
   "properties": {
    "kod": "14801035",
    "namn": "Marieberg",
    "etikett": [
     11.92468,
     57.693863
    ],
    "area_km2": 0.135
   },
   "geometry": {
    "type": "Polygon",
    "coordinates": [
     [
      [
       11.922648,
       57.693254
      ],
      [
       11.922626,
       57.693345
      ],
      [
       11.923184,
       57.693433
      ],
      [
       11.923196,
       57.693453
      ],
      [
       11.92288,
       57.694669
      ],
      [
       11.922982,
       57.694844
      ],
      [
       11.923336,
       57.695042
      ],
      [
       11.923696,
       57.695194
      ],
      [
       11.924214,
       57.695355
      ],
      [
       11.924097,
       57.695596
      ],
      [
       11.925447,
       57.695723
      ],
      [
       11.92685,
       57.695884
      ],
      [
       11.928171,
       57.696237
      ],
      [
       11.928198,
       57.696247
      ],
      [
       11.928764,
       57.695153
      ],
      [
       11.925957,
       57.69474
      ],
      [
       11.926386,
       57.693908
      ],
      [
       11.926596,
       57.6935
      ],
      [
       11.926867,
       57.692975
      ],
      [
       11.927853,
       57.69215
      ],
      [
       11.927885,
       57.692129
      ],
      [
       11.928901,
       57.691488
      ],
      [
       11.929417,
       57.691221
      ],
      [
       11.929721,
       57.69108
      ],
      [
       11.930082,
       57.690919
      ],
      [
       11.929987,
       57.690864
      ],
      [
       11.92956,
       57.690547
      ],
      [
       11.929418,
       57.69045
      ],
      [
       11.92929,
       57.690348
      ],
      [
       11.929175,
       57.690242
      ],
      [
       11.929064,
       57.690128
      ],
      [
       11.928971,
       57.69001
      ],
      [
       11.928895,
       57.689888
      ],
      [
       11.928835,
       57.689764
      ],
      [
       11.928729,
       57.68934
      ],
      [
       11.928647,
       57.688964
      ],
      [
       11.928565,
       57.688573
      ],
      [
       11.92851,
       57.68839
      ],
      [
       11.928389,
       57.688398
      ],
      [
       11.927486,
       57.688255
      ],
      [
       11.927829,
       57.688772
      ],
      [
       11.927917,
       57.689098
      ],
      [
       11.927917,
       57.689199
      ],
      [
       11.927968,
       57.689199
      ],
      [
       11.927969,
       57.689705
      ],
      [
       11.927835,
       57.690131
      ],
      [
       11.927738,
       57.690124
      ],
      [
       11.927652,
       57.69029
      ],
      [
       11.927482,
       57.690531
      ],
      [
       11.92722,
       57.690792
      ],
      [
       11.9271,
       57.690887
      ],
      [
       11.927288,
       57.691007
      ],
      [
       11.927302,
       57.691046
      ],
      [
       11.927299,
       57.691265
      ],
      [
       11.927255,
       57.691432
      ],
      [
       11.927232,
       57.691468
      ],
      [
       11.927163,
       57.691539
      ],
      [
       11.927075,
       57.691571
      ],
      [
       11.927015,
       57.691592
      ],
      [
       11.926408,
       57.691809
      ],
      [
       11.925509,
       57.69213
      ],
      [
       11.924667,
       57.692304
      ],
      [
       11.924437,
       57.692289
      ],
      [
       11.92338,
       57.692152
      ],
      [
       11.923087,
       57.692114
      ],
      [
       11.922859,
       57.692408
      ],
      [
       11.922648,
       57.693254
      ]
     ]
    ]
   }
  },
  {
   "type": "Feature",
   "properties": {
    "kod": "14801036",
    "namn": "Slottsskogsgatan m fl",
    "etikett": [
     11.918374,
     57.691156
    ],
    "area_km2": 0.1561
   },
   "geometry": {
    "type": "Polygon",
    "coordinates": [
     [
      [
       11.914754,
       57.691264
      ],
      [
       11.917595,
       57.692978
      ],
      [
       11.917703,
       57.693042
      ],
      [
       11.918744,
       57.692629
      ],
      [
       11.91907,
       57.69267
      ],
      [
       11.919356,
       57.692812
      ],
      [
       11.919564,
       57.692673
      ],
      [
       11.919679,
       57.692434
      ],
      [
       11.919623,
       57.692232
      ],
      [
       11.919652,
       57.691984
      ],
      [
       11.919924,
       57.691686
      ],
      [
       11.920139,
       57.691515
      ],
      [
       11.920184,
       57.691385
      ],
      [
       11.92021,
       57.691307
      ],
      [
       11.920878,
       57.691166
      ],
      [
       11.920866,
       57.69115
      ],
      [
       11.920853,
       57.691131
      ],
      [
       11.920835,
       57.691107
      ],
      [
       11.920536,
       57.690704
      ],
      [
       11.920651,
       57.690586
      ],
      [
       11.920686,
       57.690451
      ],
      [
       11.920686,
       57.690442
      ],
      [
       11.920661,
       57.690408
      ],
      [
       11.920478,
       57.690159
      ],
      [
       11.920337,
       57.689969
      ],
      [
       11.920657,
       57.690122
      ],
      [
       11.920811,
       57.690197
      ],
      [
       11.921224,
       57.690186
      ],
      [
       11.92088,
       57.689688
      ],
      [
       11.921261,
       57.689511
      ],
      [
       11.92083,
       57.689337
      ],
      [
       11.920793,
       57.689178
      ],
      [
       11.921379,
       57.688763
      ],
      [
       11.921429,
       57.688727
      ],
      [
       11.92265,
       57.687859
      ],
      [
       11.922855,
       57.687845
      ],
      [
       11.923136,
       57.687959
      ],
      [
       11.923226,
       57.68794
      ],
      [
       11.92327,
       57.687942
      ],
      [
       11.923447,
       57.688003
      ],
      [
       11.923653,
       57.688111
      ],
      [
       11.923804,
       57.688127
      ],
      [
       11.924002,
       57.688106
      ],
      [
       11.924372,
       57.688059
      ],
      [
       11.924736,
       57.688255
      ],
      [
       11.924817,
       57.68826
      ],
      [
       11.925186,
       57.688343
      ],
      [
       11.92551,
       57.688219
      ],
      [
       11.925413,
       57.688017
      ],
      [
       11.925449,
       57.687984
      ],
      [
       11.925978,
       57.68791
      ],
      [
       11.926092,
       57.687894
      ],
      [
       11.926898,
       57.687955
      ],
      [
       11.927486,
       57.688255
      ],
      [
       11.928389,
       57.688398
      ],
      [
       11.92851,
       57.68839
      ],
      [
       11.928402,
       57.68803
      ],
      [
       11.928053,
       57.68722
      ],
      [
       11.928028,
       57.687135
      ],
      [
       11.927994,
       57.687026
      ],
      [
       11.92787,
       57.687027
      ],
      [
       11.925758,
       57.687035
      ],
      [
       11.925756,
       57.687042
      ],
      [
       11.925284,
       57.68704
      ],
      [
       11.925219,
       57.687039
      ],
      [
       11.922417,
       57.68721
      ],
      [
       11.92131,
       57.68734
      ],
      [
       11.921291,
       57.687404
      ],
      [
       11.920956,
       57.687595
      ],
      [
       11.920772,
       57.687703
      ],
      [
       11.920296,
       57.687981
      ],
      [
       11.918542,
       57.689396
      ],
      [
       11.918528,
       57.68939
      ],
      [
       11.918513,
       57.689386
      ],
      [
       11.918497,
       57.689383
      ],
      [
       11.918479,
       57.689382
      ],
      [
       11.918463,
       57.689383
      ],
      [
       11.918446,
       57.689384
      ],
      [
       11.91843,
       57.689388
      ],
      [
       11.918416,
       57.689393
      ],
      [
       11.918402,
       57.689399
      ],
      [
       11.917813,
       57.689723
      ],
      [
       11.917606,
       57.689837
      ],
      [
       11.917479,
       57.689933
      ],
      [
       11.916572,
       57.690432
      ],
      [
       11.916467,
       57.690386
      ],
      [
       11.91571,
       57.690798
      ],
      [
       11.915457,
       57.690935
      ],
      [
       11.914754,
       57.691264
      ]
     ]
    ]
   }
  },
  {
   "type": "Feature",
   "properties": {
    "kod": "14801041",
    "namn": "Djurgårdsgatan m fl",
    "etikett": [
     11.931513,
     57.696117
    ],
    "area_km2": 0.096
   },
   "geometry": {
    "type": "Polygon",
    "coordinates": [
     [
      [
       11.933912,
       57.695446
      ],
      [
       11.935048,
       57.694419
      ],
      [
       11.935703,
       57.693838
      ],
      [
       11.936394,
       57.693923
      ],
      [
       11.936611,
       57.693503
      ],
      [
       11.937078,
       57.692143
      ],
      [
       11.936939,
       57.692161
      ],
      [
       11.936103,
       57.692095
      ],
      [
       11.936049,
       57.692464
      ],
      [
       11.934956,
       57.692418
      ],
      [
       11.934367,
       57.692409
      ],
      [
       11.934,
       57.692574
      ],
      [
       11.93389,
       57.693331
      ],
      [
       11.933606,
       57.693343
      ],
      [
       11.933355,
       57.693629
      ],
      [
       11.933102,
       57.693884
      ],
      [
       11.932751,
       57.694109
      ],
      [
       11.932257,
       57.694382
      ],
      [
       11.932215,
       57.694467
      ],
      [
       11.931944,
       57.695033
      ],
      [
       11.930774,
       57.694973
      ],
      [
       11.930587,
       57.695511
      ],
      [
       11.929382,
       57.696702
      ],
      [
       11.930461,
       57.697118
      ],
      [
       11.931575,
       57.697561
      ],
      [
       11.933048,
       57.696211
      ],
      [
       11.933912,
       57.695446
      ]
     ]
    ]
   }
  },
  {
   "type": "Feature",
   "properties": {
    "kod": "14801042",
    "namn": "Gatenhielmska",
    "etikett": [
     11.932435,
     57.699253
    ],
    "area_km2": 0.1819
   },
   "geometry": {
    "type": "Polygon",
    "coordinates": [
     [
      [
       11.936206,
       57.700923
      ],
      [
       11.936261,
       57.700582
      ],
      [
       11.93612,
       57.700579
      ],
      [
       11.936608,
       57.700369
      ],
      [
       11.936741,
       57.70038
      ],
      [
       11.936952,
       57.700278
      ],
      [
       11.936788,
       57.700256
      ],
      [
       11.936818,
       57.700093
      ],
      [
       11.936349,
       57.700043
      ],
      [
       11.935377,
       57.699983
      ],
      [
       11.93417,
       57.699939
      ],
      [
       11.934391,
       57.699226
      ],
      [
       11.93449,
       57.699068
      ],
      [
       11.934592,
       57.698812
      ],
      [
       11.934752,
       57.698414
      ],
      [
       11.935,
       57.697763
      ],
      [
       11.935147,
       57.697376
      ],
      [
       11.93531,
       57.696879
      ],
      [
       11.936128,
       57.694611
      ],
      [
       11.936147,
       57.694557
      ],
      [
       11.936394,
       57.693923
      ],
      [
       11.935703,
       57.693838
      ],
      [
       11.935048,
       57.694419
      ],
      [
       11.933912,
       57.695446
      ],
      [
       11.933048,
       57.696211
      ],
      [
       11.931575,
       57.697561
      ],
      [
       11.931514,
       57.697578
      ],
      [
       11.92997,
       57.698978
      ],
      [
       11.929068,
       57.699795
      ],
      [
       11.928737,
       57.700566
      ],
      [
       11.928732,
       57.700578
      ],
      [
       11.928626,
       57.700827
      ],
      [
       11.933868,
       57.701232
      ],
      [
       11.93656,
       57.70144
      ],
      [
       11.936639,
       57.700948
      ],
      [
       11.936206,
       57.700923
      ]
     ]
    ]
   }
  },
  {
   "type": "Feature",
   "properties": {
    "kod": "14801043",
    "namn": "Karl Johans torg",
    "etikett": [
     11.928567,
     57.69356
    ],
    "area_km2": 0.1248
   },
   "geometry": {
    "type": "Polygon",
    "coordinates": [
     [
      [
       11.930587,
       57.695511
      ],
      [
       11.930774,
       57.694973
      ],
      [
       11.931944,
       57.695033
      ],
      [
       11.932215,
       57.694467
      ],
      [
       11.931669,
       57.694399
      ],
      [
       11.931578,
       57.694576
      ],
      [
       11.931203,
       57.6946
      ],
      [
       11.93012,
       57.69452
      ],
      [
       11.93001,
       57.69436
      ],
      [
       11.930187,
       57.69405
      ],
      [
       11.930236,
       57.693762
      ],
      [
       11.930113,
       57.69363
      ],
      [
       11.930692,
       57.693483
      ],
      [
       11.930627,
       57.693395
      ],
      [
       11.930655,
       57.693204
      ],
      [
       11.930843,
       57.692841
      ],
      [
       11.931156,
       57.692673
      ],
      [
       11.93054,
       57.692582
      ],
      [
       11.930553,
       57.692558
      ],
      [
       11.930564,
       57.692538
      ],
      [
       11.930608,
       57.692461
      ],
      [
       11.930795,
       57.69231
      ],
      [
       11.930856,
       57.69226
      ],
      [
       11.931148,
       57.692078
      ],
      [
       11.931432,
       57.6919
      ],
      [
       11.931445,
       57.691875
      ],
      [
       11.931526,
       57.691886
      ],
      [
       11.931692,
       57.691562
      ],
      [
       11.93186,
       57.691237
      ],
      [
       11.931978,
       57.691007
      ],
      [
       11.931951,
       57.690983
      ],
      [
       11.932008,
       57.690964
      ],
      [
       11.932351,
       57.690867
      ],
      [
       11.932355,
       57.690839
      ],
      [
       11.932361,
       57.69081
      ],
      [
       11.932371,
       57.690781
      ],
      [
       11.932382,
       57.690753
      ],
      [
       11.932397,
       57.690725
      ],
      [
       11.932414,
       57.690698
      ],
      [
       11.932434,
       57.690671
      ],
      [
       11.932455,
       57.690644
      ],
      [
       11.93248,
       57.690618
      ],
      [
       11.932506,
       57.690593
      ],
      [
       11.932536,
       57.690568
      ],
      [
       11.932567,
       57.690545
      ],
      [
       11.932601,
       57.690522
      ],
      [
       11.932636,
       57.6905
      ],
      [
       11.932585,
       57.690433
      ],
      [
       11.932934,
       57.690356
      ],
      [
       11.932741,
       57.690104
      ],
      [
       11.931339,
       57.690464
      ],
      [
       11.930547,
       57.690774
      ],
      [
       11.930082,
       57.690919
      ],
      [
       11.929721,
       57.69108
      ],
      [
       11.929417,
       57.691221
      ],
      [
       11.928901,
       57.691488
      ],
      [
       11.927885,
       57.692129
      ],
      [
       11.927853,
       57.69215
      ],
      [
       11.926867,
       57.692975
      ],
      [
       11.926596,
       57.6935
      ],
      [
       11.926386,
       57.693908
      ],
      [
       11.925957,
       57.69474
      ],
      [
       11.928764,
       57.695153
      ],
      [
       11.928198,
       57.696247
      ],
      [
       11.929382,
       57.696702
      ],
      [
       11.930587,
       57.695511
      ]
     ]
    ]
   }
  },
  {
   "type": "Feature",
   "properties": {
    "kod": "14801044",
    "namn": "Söderlingska ängen",
    "etikett": [
     11.934691,
     57.691113
    ],
    "area_km2": 0.1377
   },
   "geometry": {
    "type": "Polygon",
    "coordinates": [
     [
      [
       11.931578,
       57.694576
      ],
      [
       11.931669,
       57.694399
      ],
      [
       11.932215,
       57.694467
      ],
      [
       11.932257,
       57.694382
      ],
      [
       11.932751,
       57.694109
      ],
      [
       11.933102,
       57.693884
      ],
      [
       11.933355,
       57.693629
      ],
      [
       11.933606,
       57.693343
      ],
      [
       11.93389,
       57.693331
      ],
      [
       11.934,
       57.692574
      ],
      [
       11.934367,
       57.692409
      ],
      [
       11.934956,
       57.692418
      ],
      [
       11.936049,
       57.692464
      ],
      [
       11.936103,
       57.692095
      ],
      [
       11.936939,
       57.692161
      ],
      [
       11.937078,
       57.692143
      ],
      [
       11.937143,
       57.692062
      ],
      [
       11.937379,
       57.691771
      ],
      [
       11.937662,
       57.691514
      ],
      [
       11.937947,
       57.691062
      ],
      [
       11.938089,
       57.690958
      ],
      [
       11.938447,
       57.690819
      ],
      [
       11.939195,
       57.690499
      ],
      [
       11.939211,
       57.690486
      ],
      [
       11.939224,
       57.690473
      ],
      [
       11.939236,
       57.690459
      ],
      [
       11.939245,
       57.690445
      ],
      [
       11.939251,
       57.69043
      ],
      [
       11.939254,
       57.690415
      ],
      [
       11.939255,
       57.6904
      ],
      [
       11.939253,
       57.690385
      ],
      [
       11.939248,
       57.69037
      ],
      [
       11.939241,
       57.690355
      ],
      [
       11.939231,
       57.690341
      ],
      [
       11.939218,
       57.690328
      ],
      [
       11.939203,
       57.690315
      ],
      [
       11.939186,
       57.690303
      ],
      [
       11.939166,
       57.690292
      ],
      [
       11.939145,
       57.690282
      ],
      [
       11.939122,
       57.690273
      ],
      [
       11.939098,
       57.690266
      ],
      [
       11.939072,
       57.69026
      ],
      [
       11.9387,
       57.690217
      ],
      [
       11.934486,
       57.689783
      ],
      [
       11.934401,
       57.689821
      ],
      [
       11.933012,
       57.690034
      ],
      [
       11.932741,
       57.690104
      ],
      [
       11.932934,
       57.690356
      ],
      [
       11.932585,
       57.690433
      ],
      [
       11.932636,
       57.6905
      ],
      [
       11.932601,
       57.690522
      ],
      [
       11.932567,
       57.690545
      ],
      [
       11.932536,
       57.690568
      ],
      [
       11.932506,
       57.690593
      ],
      [
       11.93248,
       57.690618
      ],
      [
       11.932455,
       57.690644
      ],
      [
       11.932434,
       57.690671
      ],
      [
       11.932414,
       57.690698
      ],
      [
       11.932397,
       57.690725
      ],
      [
       11.932382,
       57.690753
      ],
      [
       11.932371,
       57.690781
      ],
      [
       11.932361,
       57.69081
      ],
      [
       11.932355,
       57.690839
      ],
      [
       11.932351,
       57.690867
      ],
      [
       11.932008,
       57.690964
      ],
      [
       11.931951,
       57.690983
      ],
      [
       11.931978,
       57.691007
      ],
      [
       11.93186,
       57.691237
      ],
      [
       11.931692,
       57.691562
      ],
      [
       11.931526,
       57.691886
      ],
      [
       11.931445,
       57.691875
      ],
      [
       11.931432,
       57.6919
      ],
      [
       11.931148,
       57.692078
      ],
      [
       11.930856,
       57.69226
      ],
      [
       11.930795,
       57.69231
      ],
      [
       11.930608,
       57.692461
      ],
      [
       11.930564,
       57.692538
      ],
      [
       11.930553,
       57.692558
      ],
      [
       11.93054,
       57.692582
      ],
      [
       11.931156,
       57.692673
      ],
      [
       11.930843,
       57.692841
      ],
      [
       11.930655,
       57.693204
      ],
      [
       11.930627,
       57.693395
      ],
      [
       11.930692,
       57.693483
      ],
      [
       11.930113,
       57.69363
      ],
      [
       11.930236,
       57.693762
      ],
      [
       11.930187,
       57.69405
      ],
      [
       11.93001,
       57.69436
      ],
      [
       11.93012,
       57.69452
      ],
      [
       11.931203,
       57.6946
      ],
      [
       11.931578,
       57.694576
      ]
     ]
    ]
   }
  }
 ]
}
